{"type": "FeatureCollection", "features": [{"type":"Feature","geometry":{"type":"Point","coordinates":[-73.802579,40.709673]},"properties":{"cartodb_id":1,"borough":"QN","address":"160-05 Highland Avenue","ec_name":"HILLCREST HS","state":"NY","city":"Jamaica","zip_code":"11432.0"}},{"type":"Feature","geometry":{"type":"Point","coordinates":[-73.990721,40.763694]},"properties":{"cartodb_id":2,"borough":"MN","address":"439 West 49 Street","ec_name":"HS OF GRAPHIC COMM ARTS","state":"NY","city":"New York","zip_code":"10019.0"}},{"type":"Feature","geometry":{"type":"Point","coordinates":[-73.936812,40.751584]},"properties":{"cartodb_id":3,"borough":"QN","address":"28-01 41 Avenue","ec_name":"NEWCOMERS HS","state":"NY","city":"Long Island City","zip_code":"11101.0"}},{"type":"Feature","geometry":{"type":"Point","coordinates":[-73.978856,40.669393]},"properties":{"cartodb_id":4,"borough":"BK","address":"237 7 Avenue","ec_name":"JOHN JAY HS","state":"NY","city":"Brooklyn","zip_code":"11215.0"}},{"type":"Feature","geometry":{"type":"Point","coordinates":[-73.976453,40.689009]},"properties":{"cartodb_id":5,"borough":"BK","address":"29 Fort Greene Place","ec_name":"BROOKLYN TECH HS","state":"NY","city":"Brooklyn","zip_code":"11217.0"}},{"type":"Feature","geometry":{"type":"Point","coordinates":[-73.987461,40.695555]},"properties":{"cartodb_id":6,"borough":"BK","address":"300 Jay Street","ec_name":"NYC TECHNICAL COLLEGE","state":"NY","city":"Brooklyn","zip_code":"11201.0"}},{"type":"Feature","geometry":{"type":"Point","coordinates":[-73.885512,40.815595]},"properties":{"cartodb_id":7,"borough":"BX","address":"730 Bryant Avenue","ec_name":"IS 201","state":"NY","city":"Bronx","zip_code":"10474.0"}},{"type":"Feature","geometry":{"type":"Point","coordinates":[-73.893007,40.874668]},"properties":{"cartodb_id":8,"borough":"BX","address":"250 Bedford Park Boulevard W","ec_name":"LEHMAN COLLEGE","state":"NY","city":"Bronx","zip_code":"10468.0"}},{"type":"Feature","geometry":{"type":"Point","coordinates":[-73.91023,40.857219]},"properties":{"cartodb_id":9,"borough":"BX","address":"80 W 181 Street","ec_name":"BX COMMUNITY COLLEGE","state":"NY","city":"Bronx","zip_code":"10453.0"}},{"type":"Feature","geometry":{"type":"Point","coordinates":[-73.981855,40.620905]},"properties":{"cartodb_id":10,"borough":"BK","address":"5800 20 Avenue","ec_name":"FRANKLIN D. ROOSEVELT HS","state":"NY","city":"Brooklyn","zip_code":"11204.0"}},{"type":"Feature","geometry":{"type":"Point","coordinates":[-73.961358,40.669252]},"properties":{"cartodb_id":11,"borough":"BK","address":"901 Classon Avenue","ec_name":"CLARA BARTON HS","state":"NY","city":"Brooklyn","zip_code":"11225.0"}},{"type":"Feature","geometry":{"type":"Point","coordinates":[-73.912073,40.668363]},"properties":{"cartodb_id":12,"borough":"BK","address":"111 Bristol Street","ec_name":"PS 327","state":"NY","city":"Brooklyn","zip_code":"11212.0"}},{"type":"Feature","geometry":{"type":"Point","coordinates":[-73.868932,40.692737]},"properties":{"cartodb_id":13,"borough":"BK","address":"999 Jamaica Avenue","ec_name":"FRANKLIN K. LANE HS","state":"NY","city":"Brooklyn","zip_code":"11208.0"}},{"type":"Feature","geometry":{"type":"Point","coordinates":[-74.105012,40.608351]},"properties":{"cartodb_id":14,"borough":"SI","address":"715 Ocean Terrace","ec_name":"PS 80 PETRIDES COMPLEX","state":"NY","city":"Staten Island","zip_code":"10301.0"}},{"type":"Feature","geometry":{"type":"Point","coordinates":[-73.974357,40.785936]},"properties":{"cartodb_id":15,"borough":"MN","address":"145 West 84 Street","ec_name":"LOUIS D. BRANDEIS HS","state":"NY","city":"New York","zip_code":"10024.0"}},{"type":"Feature","geometry":{"type":"Point","coordinates":[-73.935822,40.839397]},"properties":{"cartodb_id":16,"borough":"MN","address":"21 Jumel Place","ec_name":"IS 90","state":"NY","city":"New York","zip_code":"10032.0"}},{"type":"Feature","geometry":{"type":"Point","coordinates":[-73.926227,40.855601]},"properties":{"cartodb_id":17,"borough":"MN","address":"549 Audubon Avenue","ec_name":"G. WASHINGTON HS","state":"NY","city":"New York","zip_code":"10040.0"}},{"type":"Feature","geometry":{"type":"Point","coordinates":[-73.950464,40.819543]},"properties":{"cartodb_id":18,"borough":"MN","address":"181 Convent Avenue","ec_name":"CITY COLLEGE","state":"NY","city":"New York","zip_code":"10031.0"}},{"type":"Feature","geometry":{"type":"Point","coordinates":[-73.965036,40.768698]},"properties":{"cartodb_id":19,"borough":"MN","address":"695 Park Avenue","ec_name":"HUNTER COLLEGE","state":"NY","city":"New York","zip_code":"10065.0"}},{"type":"Feature","geometry":{"type":"Point","coordinates":[-73.986647,40.770357]},"properties":{"cartodb_id":20,"borough":"MN","address":"445 W 59 Street","ec_name":"JOHN JAY COLLEGE","state":"NY","city":"New York","zip_code":"10019.0"}},{"type":"Feature","geometry":{"type":"Point","coordinates":[-73.780787,40.771458]},"properties":{"cartodb_id":21,"borough":"QN","address":"32-24 Corporal Kennedy Street","ec_name":"BAYSIDE HS","state":"NY","city":"Bayside","zip_code":"11361.0"}},{"type":"Feature","geometry":{"type":"Point","coordinates":[-73.910511,40.757905]},"properties":{"cartodb_id":22,"borough":"QN","address":"48-10 31 Avenue","ec_name":"WILLIAM C. BRYANT HS","state":"NY","city":"Astoria","zip_code":"11103.0"}},{"type":"Feature","geometry":{"type":"Point","coordinates":[-73.818638,40.774929]},"properties":{"cartodb_id":23,"borough":"QN","address":"147-26 25 Drive","ec_name":"JHS 185","state":"NY","city":"Flushing","zip_code":"11354.0"}},{"type":"Feature","geometry":{"type":"Point","coordinates":[-73.826638,40.765081]},"properties":{"cartodb_id":24,"borough":"QN","address":"35-01 Union Street","ec_name":"FLUSHING HS","state":"NY","city":"Flushing","zip_code":"11354.0"}},{"type":"Feature","geometry":{"type":"Point","coordinates":[-73.958292,40.692476]},"properties":{"cartodb_id":25,"borough":"BK","address":"300 Willoughby Avenue","ec_name":"IS 117","state":"NY","city":"Brooklyn","zip_code":"11205.0"}},{"type":"Feature","geometry":{"type":"Point","coordinates":[-73.929305,40.743492]},"properties":{"cartodb_id":26,"borough":"QN","address":"45-30 36 Street","ec_name":"AVIATION HS","state":"NY","city":"Long Island City","zip_code":"11101.0"}},{"type":"Feature","geometry":{"type":"Point","coordinates":[-73.889709,40.843873]},"properties":{"cartodb_id":27,"borough":"BX","address":"1919 Prospect Avenue","ec_name":"PS 211","state":"NY","city":"Bronx","zip_code":"10457.0"}},{"type":"Feature","geometry":{"type":"Point","coordinates":[-74.160704,40.58328]},"properties":{"cartodb_id":28,"borough":"SI","address":"77 Marsh Avenue","ec_name":"PS 58","state":"NY","city":"Staten Island","zip_code":"10314.0"}},{"type":"Feature","geometry":{"type":"Point","coordinates":[-73.98359,40.740106]},"properties":{"cartodb_id":29,"borough":"MN","address":"155 E 24 Street","ec_name":"BARUCH COLLEGE","state":"NY","city":"New York","zip_code":"10010.0"}},{"type":"Feature","geometry":{"type":"Point","coordinates":[-73.821325,40.734828]},"properties":{"cartodb_id":30,"borough":"QN","address":"149-11 Melbourne Avenue","ec_name":"TOWNSEND HARRIS HS","state":"NY","city":"Flushing","zip_code":"11367.0"}},{"type":"Feature","geometry":{"type":"Point","coordinates":[-73.874264,40.740902]},"properties":{"cartodb_id":31,"borough":"QN","address":"48-01 90 Street","ec_name":"NEWTOWN HS","state":"NY","city":"Elmhurst","zip_code":"11373.0"}},{"type":"Feature","geometry":{"type":"Point","coordinates":[-73.785368,40.707637]},"properties":{"cartodb_id":32,"borough":"QN","address":"92-07 175 Street","ec_name":"PS - IS 268","state":"NY","city":"Jamaica","zip_code":"11433.0"}},{"type":"Feature","geometry":{"type":"Point","coordinates":[-73.861474,40.87545]},"properties":{"cartodb_id":33,"borough":"BX","address":"800 East Gun Hill Road","ec_name":"EVANDER CHILDS HS","state":"NY","city":"Bronx","zip_code":"10467.0"}},{"type":"Feature","geometry":{"type":"Point","coordinates":[-74.081855,40.64536]},"properties":{"cartodb_id":34,"borough":"SI","address":"105 Hamilton Avenue","ec_name":"CURTIS HS","state":"NY","city":"Staten Island","zip_code":"10301.0"}},{"type":"Feature","geometry":{"type":"Point","coordinates":[-74.145033,40.622887]},"properties":{"cartodb_id":35,"borough":"SI","address":"20 Houston Street","ec_name":"IS 51","state":"NY","city":"Staten Island","zip_code":"10302.0"}},{"type":"Feature","geometry":{"type":"Point","coordinates":[-74.1972,40.544286]},"properties":{"cartodb_id":36,"borough":"SI","address":"455 Huguenot Avenue","ec_name":"IS 75","state":"NY","city":"Staten Island","zip_code":"10312.0"}},{"type":"Feature","geometry":{"type":"Point","coordinates":[-73.947398,40.817307]},"properties":{"cartodb_id":37,"borough":"MN","address":"6 Edgecombe Avenue","ec_name":"BREAD AND ROSES","state":"NY","city":"New York","zip_code":"10030.0"}},{"type":"Feature","geometry":{"type":"Point","coordinates":[-73.970919,40.791512]},"properties":{"cartodb_id":38,"borough":"MN","address":"154 West 93 Street","ec_name":"IS 118","state":"NY","city":"New York","zip_code":"10025.0"}},{"type":"Feature","geometry":{"type":"Point","coordinates":[-73.954111,40.802546]},"properties":{"cartodb_id":39,"borough":"MN","address":"215 West 114 Street","ec_name":"IS 88","state":"NY","city":"New York","zip_code":"10026.0"}},{"type":"Feature","geometry":{"type":"Point","coordinates":[-73.989354,40.717311]},"properties":{"cartodb_id":40,"borough":"MN","address":"350 Grand Street","ec_name":"SEWARD PARK HS","state":"NY","city":"New York","zip_code":"10002.0"}},{"type":"Feature","geometry":{"type":"Point","coordinates":[-73.959888,40.765586]},"properties":{"cartodb_id":41,"borough":"MN","address":"317 East 67 Street","ec_name":"JULIA RICHMAN ED. COMPLEX","state":"NY","city":"New York","zip_code":"10065.0"}},{"type":"Feature","geometry":{"type":"Point","coordinates":[-73.844807,40.729759]},"properties":{"cartodb_id":42,"borough":"QN","address":"67-01 110 Street","ec_name":"FOREST HILLS HS","state":"NY","city":"Forest Hills","zip_code":"11375.0"}},{"type":"Feature","geometry":{"type":"Point","coordinates":[-74.003961,40.627845]},"properties":{"cartodb_id":43,"borough":"BK","address":"1171 65 Street","ec_name":"IS 187","state":"NY","city":"Brooklyn","zip_code":"11219.0"}},{"type":"Feature","geometry":{"type":"Point","coordinates":[-73.925721,40.665447]},"properties":{"cartodb_id":44,"borough":"BK","address":"1100 East New York Avenue","ec_name":"PS 189","state":"NY","city":"Brooklyn","zip_code":"11212.0"}},{"type":"Feature","geometry":{"type":"Point","coordinates":[-73.953374,40.648518]},"properties":{"cartodb_id":45,"borough":"BK","address":"72 Veronica Place","ec_name":"IS 246","state":"NY","city":"Brooklyn","zip_code":"11226.0"}},{"type":"Feature","geometry":{"type":"Point","coordinates":[-73.966493,40.649702]},"properties":{"cartodb_id":46,"borough":"BK","address":"18 Marlborough Road","ec_name":"PS 249","state":"NY","city":"Brooklyn","zip_code":"11226.0"}},{"type":"Feature","geometry":{"type":"Point","coordinates":[-73.915848,40.678143]},"properties":{"cartodb_id":47,"borough":"BK","address":"1137 Herkimer Street","ec_name":"IS 271","state":"NY","city":"Brooklyn","zip_code":"11233.0"}},{"type":"Feature","geometry":{"type":"Point","coordinates":[-74.004612,40.652841]},"properties":{"cartodb_id":48,"borough":"BK","address":"427 38 Street","ec_name":"PS 24","state":"NY","city":"Brooklyn","zip_code":"11232.0"}},{"type":"Feature","geometry":{"type":"Point","coordinates":[-73.931622,40.678908]},"properties":{"cartodb_id":49,"borough":"BK","address":"1700 Fulton Street","ec_name":"BOYS & GIRLS HS","state":"NY","city":"Brooklyn","zip_code":"11213.0"}},{"type":"Feature","geometry":{"type":"Point","coordinates":[-73.933458,40.691455]},"properties":{"cartodb_id":50,"borough":"BK","address":"125 Stuyvesant Avenue","ec_name":"JHS 57","state":"NY","city":"Brooklyn","zip_code":"11221.0"}},{"type":"Feature","geometry":{"type":"Point","coordinates":[-73.919415,40.697523]},"properties":{"cartodb_id":51,"borough":"BK","address":"1300 Greene Avenue","ec_name":"IS 383","state":"NY","city":"Brooklyn","zip_code":"11237.0"}},{"type":"Feature","geometry":{"type":"Point","coordinates":[-73.911825,40.696881]},"properties":{"cartodb_id":52,"borough":"BK","address":"400 Irving Avenue","ec_name":"BUSHWICK HS","state":"NY","city":"Brooklyn","zip_code":"11237.0"}},{"type":"Feature","geometry":{"type":"Point","coordinates":[-73.866978,40.749005]},"properties":{"cartodb_id":53,"borough":"QN","address":"98-02 Roosevelt Avenue","ec_name":"PS 19","state":"NY","city":"Corona","zip_code":"11368.0"}},{"type":"Feature","geometry":{"type":"Point","coordinates":[-73.908951,40.711446]},"properties":{"cartodb_id":54,"borough":"QN","address":"21-27 Himrod Street","ec_name":"GROVER CLEVELAND HS","state":"NY","city":"Ridgewood","zip_code":"11385.0"}},{"type":"Feature","geometry":{"type":"Point","coordinates":[-73.836987,40.678813]},"properties":{"cartodb_id":55,"borough":"QN","address":"101-01 Rockaway Boulevard","ec_name":"JOHN ADAMS HS","state":"NY","city":"Ozone Park","zip_code":"11417.0"}},{"type":"Feature","geometry":{"type":"Point","coordinates":[-73.756582,40.755909]},"properties":{"cartodb_id":56,"borough":"QN","address":"222-05 56 Avenue","ec_name":"QUEENSBOROUGH COMM COLLEGE","state":"NY","city":"Oakland Gardens","zip_code":"11364.0"}},{"type":"Feature","geometry":{"type":"Point","coordinates":[-73.726359,40.710732]},"properties":{"cartodb_id":57,"borough":"QN","address":"2150 Hempstead Turnpike","ec_name":"BELMONT RACETRACK","state":"NY","city":"Elmont","zip_code":"11003.0"}},{"type":"Feature","geometry":{"type":"Point","coordinates":[-73.890598,40.836137]},"properties":{"cartodb_id":58,"borough":"BX","address":"1619 Boston Road","ec_name":"IS 98","state":"NY","city":"Bronx","zip_code":"10460.0"}},{"type":"Feature","geometry":{"type":"Point","coordinates":[-73.865955,40.837859]},"properties":{"cartodb_id":59,"borough":"BX","address":"1827 Archer Street","ec_name":"PS 102","state":"NY","city":"Bronx","zip_code":"10460.0"}},{"type":"Feature","geometry":{"type":"Point","coordinates":[-73.918995,40.827552]},"properties":{"cartodb_id":60,"borough":"BX","address":"244 East 163 Street","ec_name":"HS OF LAW, GOV'T & JUSTICE","state":"NY","city":"Bronx","zip_code":"10451.0"}},{"type":"Feature","geometry":{"type":"Point","coordinates":[-73.919863,40.835593]},"properties":{"cartodb_id":61,"borough":"BX","address":"1220 Gerard Avenue","ec_name":"PS - IS 218","state":"NY","city":"Bronx","zip_code":"10452.0"}},{"type":"Feature","geometry":{"type":"Point","coordinates":[-73.910736,40.851559]},"properties":{"cartodb_id":62,"borough":"BX","address":"40 West Tremont Avenue","ec_name":"PS 306","state":"NY","city":"Bronx","zip_code":"10453.0"}},{"type":"Feature","geometry":{"type":"Point","coordinates":[-73.91429,40.888126]},"properties":{"cartodb_id":63,"borough":"BX","address":"660 West 237 Street","ec_name":"MS - HS 141","state":"NY","city":"Bronx","zip_code":"10463.0"}},{"type":"Feature","geometry":{"type":"Point","coordinates":[-73.90844,40.813662]},"properties":{"cartodb_id":64,"borough":"BX","address":"564 Jackson Avenue","ec_name":"PS 5","state":"NY","city":"Bronx","zip_code":"10455.0"}}]}